     2.100          NAVIGATION                              RINEX VERSION / TYPE
fic2rin                                 10/27/2011 00:11:44 PGM / RUN BY / DATE
                                                            END OF HEADER
14 11 10 26  1 59 44.0  .178437680006D-03  .170530256582D-11  .000000000000D+00
     .100000000000D+01 -.708125000000D+02  .456340436982D-08  .179789004929D+01
    -.380538403988D-05  .631862482987D-02  .197440385818D-05  .515372518349D+04
     .266384000000D+06 -.184401869774D-06 -.147139701494D+01 -.137835741043D-06
     .980718251720D+00  .353906250000D+03 -.207419574349D+01 -.841535053313D-08
    -.309298597814D-09  .100000000000D+01  .165900000000D+04  .000000000000D+00
     .240000000000D+01  .000000000000D+00 -.884756445885D-08  .100000000000D+01
     .265206000000D+06  .400000000000D+01
 5 11 10 26  1 59 44.0 -.236649066210D-03 -.511590769747D-11  .000000000000D+00
     .200000000000D+01  .141187500000D+03  .480555731361D-08  .282668581047D+01
     .744313001633D-05  .256706750952D-02  .772997736931D-05  .515378852844D+04
     .266384000000D+06 -.949949026108D-07 -.258149341116D+01 -.353902578354D-07
     .953109681370D+00  .226718750000D+03  .175693702256D+00 -.825462955274D-08
     .501092301077D-09  .100000000000D+01  .165900000000D+04  .000000000000D+00
     .240000000000D+01  .000000000000D+00 -.102445483208D-07  .200000000000D+01
     .266196000000D+06  .400000000000D+01
 4 11 10 26  3 59 44.0  .271602533758D-03  .113686837722D-10  .000000000000D+00
     .130000000000D+02 -.178125000000D+01  .474412618333D-08 -.121813275740D+01
     .279396772385D-07  .993278133683D-02  .130329281092D-04  .515373265076D+04
     .273584000000D+06  .217929482460D-06  .265687309741D+01 -.372529029846D-08
     .938211241727D+00  .108343750000D+03  .785678724753D+00 -.809140846821D-08
    -.463947896721D-09  .100000000000D+01  .165900000000D+04  .000000000000D+00
     .240000000000D+01  .000000000000D+00 -.651925802231D-08  .130000000000D+02
     .266406000000D+06  .400000000000D+01
 5 11 10 26  3 59 44.0 -.236685853451D-03 -.511590769747D-11  .000000000000D+00
     .200000000000D+02  .144500000000D+03  .476877006699D-08 -.240622264291D+01
     .737234950066D-05  .256764492951D-02  .829622149467D-05  .515378763008D+04
     .273584000000D+06 -.465661287308D-07 -.258155304702D+01 -.108033418655D-06
     .953113243575D+00  .218750000000D+03  .175530544466D+00 -.828748806429D-08
     .530379235281D-09  .100000000000D+01  .165900000000D+04  .000000000000D+00
     .240000000000D+01  .000000000000D+00 -.102445483208D-07  .200000000000D+02
     .266406000000D+06  .400000000000D+01
14 11 10 26  3 59 44.0  .178449787199D-03  .170530256582D-11  .000000000000D+00
     .600000000000D+01 -.618125000000D+02  .451233081383D-08  .284780893582D+01
    -.322423875332D-05  .631708384026D-02  .112690031528D-05  .515372915459D+04
     .273584000000D+06 -.223517417908D-07 -.147145711161D+01 -.175088644028D-06
     .980716475738D+00  .366125000000D+03 -.207396620433D+01 -.832356099544D-08
    -.295726603914D-09  .100000000000D+01  .165900000000D+04  .000000000000D+00
     .240000000000D+01  .000000000000D+00 -.884756445885D-08  .600000000000D+01
     .266406000000D+06  .400000000000D+01
 1 11 10 26  4  0  0.0  .535142607987D-04  .259205990005D-10  .000000000000D+00
     .170000000000D+02  .105000000000D+02  .420160358508D-08 -.282642797847D+00
     .428408384323D-06  .429357634857D-03  .134799629450D-04  .515367428589D+04
     .273600000000D+06  .353902578354D-07  .264878934126D+01 -.186264514923D-07
     .960538234547D+00  .119875000000D+03  .139707974808D+01 -.782389732530D-08
    -.493234830925D-09  .100000000000D+01  .165900000000D+04  .000000000000D+00
     .240000000000D+01  .000000000000D+00  .791624188423D-08  .170000000000D+02
     .266406000000D+06  .400000000000D+01
 2 11 10 26  4  0  0.0  .362536404282D-03  .170530256582D-11  .000000000000D+00
     .650000000000D+02 -.231250000000D+02  .467769484477D-08  .187482744632D+01
    -.110082328320D-05  .105679699918D-01  .134371221066D-04  .515359945869D+04
     .273600000000D+06 -.147148966789D-06  .263970738344D+01  .100582838058D-06
     .939118207049D+00  .104781250000D+03 -.291981480381D+01 -.811069498586D-08
    -.623954561641D-09  .100000000000D+01  .165900000000D+04  .000000000000D+00
     .240000000000D+01  .000000000000D+00 -.172294676304D-07  .650000000000D+02
     .266406000000D+06  .400000000000D+01
 3 11 10 26  4  0  0.0  .786328688264D-03  .511590769747D-11  .000000000000D+00
     .320000000000D+02 -.153750000000D+02  .572488132143D-08  .203795221872D+01
    -.109523534775D-05  .149072946515D-01  .356324017048D-05  .515367161942D+04
     .273600000000D+06 -.186264514923D-08  .147898432691D+01 -.339001417160D-06
     .929234425292D+00  .294437500000D+03  .115057422181D+01 -.870643408650D-08
    -.996470078407D-10  .100000000000D+01  .165900000000D+04  .000000000000D+00
     .240000000000D+01  .000000000000D+00 -.465661287308D-08  .320000000000D+02
     .266406000000D+06  .400000000000D+01
 6 11 10 26  4  0  0.0 -.427262857556D-04  .670752342558D-11  .000000000000D+00
     .700000000000D+02 -.200000000000D+02  .556166023690D-08 -.227656570572D+01
    -.884756445885D-06  .667571963277D-02  .398233532906D-05  .515369382477D+04
     .273600000000D+06 -.113621354103D-06  .155391870675D+01  .102445483208D-06
     .936257134273D+00  .290718750000D+03 -.658585811897D+00 -.868107588737D-08
    -.176793078427D-09  .100000000000D+01  .165900000000D+04  .000000000000D+00
     .340000000000D+01  .000000000000D+00 -.465661287308D-08  .700000000000D+02
     .266406000000D+06  .400000000000D+01
 7 11 10 26  4  0  0.0  .337650999427D-04  .204636307899D-11  .000000000000D+00
     .860000000000D+02 -.128968750000D+03  .399373778378D-08  .362021023949D+00
    -.681355595589D-05  .508066301700D-02  .124741345644D-04  .515363849068D+04
     .273600000000D+06  .521540641785D-07 -.473215406864D+00  .149011611938D-07
     .975490211140D+00  .143031250000D+03 -.304311475484D+01 -.785782731005D-08
    -.349657421778D-09  .100000000000D+01  .165900000000D+04  .000000000000D+00
     .240000000000D+01  .000000000000D+00 -.107102096081D-07  .860000000000D+02
     .266406000000D+06  .400000000000D+01
 8 11 10 26  4  0  0.0  .363215804100D-07  .000000000000D+00  .000000000000D+00
     .110000000000D+02 -.112968750000D+03  .347228749185D-08 -.149337022589D+00
    -.603310763836D-05  .121619979618D-01  .130888074636D-04  .515374675560D+04
     .273600000000D+06  .137835741043D-06 -.394522408665D+00  .484287738800D-07
     .997436998866D+00  .145406250000D+03 -.301346728191D+01 -.766174771397D-08
    -.261082303697D-09  .100000000000D+01  .165900000000D+04  .000000000000D+00
     .240000000000D+01  .000000000000D+00 -.419095158577D-08  .110000000000D+02
     .266406000000D+06  .400000000000D+01
 9 11 10 26  4  0  0.0  .114173628390D-03  .250111042988D-11  .000000000000D+00
     .890000000000D+02 -.118437500000D+03  .393909265045D-08 -.311724510611D+00
    -.615790486336D-05  .171755242627D-01  .113304704428D-04  .515365917206D+04
     .273600000000D+06 -.223517417908D-06 -.500518312185D+00  .372529029846D-07
     .984314357444D+00  .175906250000D+03  .160107570426D+01 -.805319259065D-08
    -.239652839646D-09  .100000000000D+01  .165900000000D+04  .000000000000D+00
     .240000000000D+01  .000000000000D+00 -.558793544769D-08  .890000000000D+02
     .266406000000D+06  .400000000000D+01
10 11 10 26  4  0  0.0 -.172476284206D-04 -.113686837722D-11  .000000000000D+00
     .240000000000D+02  .152687500000D+03  .485627371186D-08 -.210276162695D+01
     .756792724133D-05  .106462880503D-01  .747106969357D-05  .515364666557D+04
     .273600000000D+06  .128522515297D-06 -.255875147626D+01 -.154599547386D-06
     .948014445955D+00  .226750000000D+03  .710754725787D+00 -.829784563858D-08
     .663241912402D-09  .100000000000D+01  .165900000000D+04  .000000000000D+00
     .240000000000D+01  .000000000000D+00 -.232830643654D-08  .240000000000D+02
     .266406000000D+06  .400000000000D+01
11 11 10 26  4  0  0.0 -.198097433895D-03 -.341060513165D-11  .000000000000D+00
     .630000000000D+02 -.385000000000D+02  .619168648002D-08  .545243243501D+00
    -.201910734177D-05  .125226463424D-01  .106841325760D-04  .515367184258D+04
     .273600000000D+06 -.141561031342D-06  .239469376589D+01  .987201929092D-07
     .888033703128D+00  .136968750000D+03  .989095695989D+00 -.897751680675D-08
    -.733601986039D-09  .100000000000D+01  .165900000000D+04  .000000000000D+00
     .240000000000D+01  .000000000000D+00 -.116415321827D-07  .630000000000D+02
     .266406000000D+06  .400000000000D+01
12 11 10 26  4  0  0.0  .307853333652D-04  .227373675443D-11  .000000000000D+00
     .350000000000D+02  .442500000000D+02  .421731852539D-08  .187091564726D+00
     .216998159885D-05  .356673682109D-02  .992976129055D-05  .515363830185D+04
     .273600000000D+06  .577419996262D-07  .581558419077D+00 -.521540641785D-07
     .977172809776D+00  .196312500000D+03 -.695729562329D-01 -.788997150613D-08
     .582881422208D-09  .100000000000D+01  .165900000000D+04  .000000000000D+00
     .240000000000D+01  .000000000000D+00 -.121071934700D-07  .350000000000D+02
     .266406000000D+06  .400000000000D+01
13 11 10 26  4  0  0.0  .244766473770D-03 -.193267624127D-11  .000000000000D+00
     .740000000000D+02 -.711875000000D+02  .453804617070D-08  .280646185162D+01
    -.355392694473D-05  .457972439472D-02  .143423676491D-05  .515375914001D+04
     .273600000000D+06  .124797224998D-06 -.144621443529D+01  .596046447754D-07
     .987766776817D+00  .365718750000D+03  .195526172665D+01 -.840892169391D-08
    -.295369446180D-09  .100000000000D+01  .165900000000D+04  .000000000000D+00
     .240000000000D+01  .000000000000D+00 -.111758708954D-07  .740000000000D+02
     .266406000000D+06  .400000000000D+01
